OBJECT_NAME,OBJECT_ID,EPOCH,MEAN_MOTION,ECCENTRICITY,INCLINATION,RA_OF_ASC_NODE,ARG_OF_PERICENTER,MEAN_ANOMALY,EPHEMERIS_TYPE,CLASSIFICATION_TYPE,NORAD_CAT_ID,ELEMENT_SET_NO,REV_AT_EPOCH,BSTAR,MEAN_MOTION_DOT,MEAN_MOTION_DDOT
KUIPER-00602,2026-118V,2026-06-06T06:00:02.000160,15.37838689,.00032909,51.8695,106.1220,104.7309,141.5124,0,U,69286,999,130,.18452025E-2,.69958E-3,0
KUIPER-00603,2026-118W,2026-06-06T06:00:02.000160,15.37254328,.00057322,51.8663,106.1580,119.4690,110.6941,0,U,69287,999,216,.19607232E-2,.73014E-3,0
KUIPER-00605,2026-118X,2026-06-06T06:00:02.000160,15.36801554,.00078187,51.8652,106.1847,124.7358,92.6036,0,U,69288,999,200,.18761126E-2,.68819E-3,0
KUIPER-00606,2026-118Y,2026-06-06T06:00:02.000160,15.37493274,.00048715,51.8688,106.1427,112.0387,124.3658,0,U,69289,999,185,.18396554E-2,.68969E-3,0
KUIPER-00607,2026-118Z,2026-06-06T06:00:02.000160,15.37165529,.00065082,51.8672,106.1615,119.1587,108.8531,0,U,69290,999,181,.1893532E-2,.7028E-3,0
KUIPER-00608,2026-118AA,2026-06-06T06:00:02.000160,15.36226721,.0009835,51.8592,106.2139,141.1424,62.4024,0,U,69291,999,178,.21138639E-2,.76278E-3,0
KUIPER-00610,2026-118AB,2026-06-06T06:00:02.000160,15.38034294,.00030349,51.8715,106.1084,96.2676,153.8954,0,U,69292,999,170,.18247824E-2,.69618E-3,0
KUIPER-00613,2026-118AC,2026-06-06T06:00:02.000160,15.35637041,.00103184,51.8617,106.2296,148.1157,47.4933,0,U,69293,999,130,.13516766E-3,.4377E-4,0
KUIPER-00618,2026-118AD,2026-06-06T06:00:02.000160,15.38422051,.00023586,51.8715,106.0864,60.8242,199.7038,0,U,69294,999,130,.18245824E-2,.70503E-3,0
KUIPER-00620,2026-118AE,2026-06-06T06:00:02.000160,15.38120491,.00031755,51.8710,106.1055,84.6689,167.7908,0,U,69295,999,224,.19244046E-2,.73687E-3,0
STARLINK-37501,2026-119A,2026-06-06T06:00:02.000160,15.85215358,.0000953,97.2831,182.4556,84.0064,226.2140,0,U,69296,999,213,-.31535775E-2,-.687311E-2,0
STARLINK-37496,2026-119B,2026-06-06T06:00:02.000160,15.84772968,.00010505,97.2829,182.4569,72.8644,240.4836,0,U,69297,999,213,-.75949846E-2,-.1542395E-1,0
STARLINK-37519,2026-119C,2026-06-06T06:00:02.000160,15.86064810,.00008028,97.2832,182.4601,77.1787,243.4056,0,U,69298,999,213,-.47899234E-2,-.104418E-1,0
STARLINK-37455,2026-119D,2026-06-06T06:00:02.000160,15.84897794,.00012039,97.2829,182.4581,89.8363,226.9005,0,U,69299,999,213,-.5720776E-2,-.1184046E-1,0
STARLINK-37456,2026-119E,2026-06-06T06:00:02.000160,15.85345293,.00010149,97.2830,182.4611,85.4670,238.1254,0,U,69300,999,213,-.55635429E-2,-.1177316E-1,0
STARLINK-37630,2026-119F,2026-06-06T06:00:02.000160,15.85871073,.00007569,97.2833,182.4627,99.1775,227.6119,0,U,69301,999,229,-.3378036E-2,-.754184E-2,0
STARLINK-37804,2026-119G,2026-06-06T06:00:02.000160,15.85860082,.00009949,97.2833,182.4639,83.8773,246.2060,0,U,69302,999,229,-.57730659E-2,-.1244165E-1,0
STARLINK-37730,2026-119H,2026-06-06T06:00:02.000160,15.86319633,.00007558,97.2833,182.4652,94.4611,238.7878,0,U,69303,999,229,-.30424746E-2,-.698575E-2,0
STARLINK-37731,2026-119J,2026-06-06T06:00:02.000160,15.87492814,.00012101,97.2833,182.4663,59.6202,276.7139,0,U,69304,999,229,-.10350427E-1,-.230971E-1,0
STARLINK-37734,2026-119K,2026-06-06T06:00:02.000160,15.86535018,.00010133,97.2835,182.4675,100.7661,238.7249,0,U,69305,999,229,-.52644482E-2,-.115846E-1,0
STARLINK-37701,2026-119L,2026-06-06T06:00:02.000160,15.87725313,.00010838,97.2835,182.4687,46.8174,295.4877,0,U,69306,999,229,-.10754599E-1,-.2407346E-1,0
STARLINK-37732,2026-119M,2026-06-06T06:00:02.000160,15.87540186,.00008881,97.2835,182.4703,63.2254,281.9724,0,U,69307,999,229,-.10314661E-1,-.2307092E-1,0
STARLINK-37689,2026-119N,2026-06-06T06:00:02.000160,15.87665541,.0000655,97.2830,182.4709,40.3649,307.6374,0,U,69308,999,229,-.10980699E-1,-.2506956E-1,0
STARLINK-37619,2026-119P,2026-06-06T06:00:02.000160,15.87956943,.0000919,97.2835,182.4724,62.8797,287.9782,0,U,69309,999,229,-.85657838E-2,-.200426E-1,0
STARLINK-37794,2026-119Q,2026-06-06T06:00:02.000160,15.88581828,.00008252,97.2835,182.4738,77.2309,276.4310,0,U,69310,999,229,-.27298055E-2,-.70057E-2,0
STARLINK-37795,2026-119R,2026-06-06T06:00:02.000160,15.88405704,.00011735,97.2835,182.4743,53.5702,302.7776,0,U,69311,999,229,-.55654619E-2,-.1346149E-1,0
STARLINK-37790,2026-119S,2026-06-06T06:00:02.000160,15.88380979,.0000928,97.2832,182.4757,85.1353,273.9808,0,U,69312,999,229,-.2680697E-2,-.682502E-2,0
STARLINK-37676,2026-119T,2026-06-06T06:00:02.000160,15.89196475,.00007871,97.2835,182.4771,77.8017,284.2218,0,U,69313,999,229,-.24642155E-2,-.655413E-2,0
STARLINK-37617,2026-119U,2026-06-06T06:00:02.000160,15.89389774,.00007834,97.2834,182.4775,80.1874,284.7621,0,U,69314,999,229,-.24547783E-2,-.659015E-2,0
STARLINK-37627,2026-119V,2026-06-06T06:00:02.000160,15.89594782,.00007862,97.2834,182.4790,77.5982,289.9531,0,U,69315,999,229,-.24271308E-2,-.706676E-2,.15368175E-3
