KUIPER-00602            
1 69286U 26118V   26157.25002315  .00069958  00000+0  18452-2 0  9996
2 69286  51.8695 106.1220 0003290 104.7309 141.5124 15.37838689  1307
KUIPER-00603            
1 69287U 26118W   26157.25002315  .00073014  00000+0  19607-2 0  9998
2 69287  51.8663 106.1580 0005732 119.4690 110.6941 15.37254328  2162
KUIPER-00605            
1 69288U 26118X   26157.25002315  .00068819  00000+0  18761-2 0  9996
2 69288  51.8652 106.1847 0007818 124.7358  92.6036 15.36801554  2009
KUIPER-00606            
1 69289U 26118Y   26157.25002315  .00068969  00000+0  18397-2 0  9998
2 69289  51.8688 106.1427 0004871 112.0387 124.3658 15.37493274  1853
KUIPER-00607            
1 69290U 26118Z   26157.25002315  .00070280  00000+0  18935-2 0  9997
2 69290  51.8672 106.1615 0006508 119.1587 108.8531 15.37165529  1818
KUIPER-00608            
1 69291U 26118AA  26157.25002315  .00076278  00000+0  21139-2 0  9991
2 69291  51.8592 106.2139 0009835 141.1424  62.4024 15.36226721  1782
KUIPER-00610            
1 69292U 26118AB  26157.25002315  .00069618  00000+0  18248-2 0  9999
2 69292  51.8715 106.1084 0003034  96.2676 153.8954 15.38034294  1705
KUIPER-00613            
1 69293U 26118AC  26157.25002315  .00004377  00000+0  13517-3 0  9996
2 69293  51.8617 106.2296 0010318 148.1157  47.4933 15.35637041  1304
KUIPER-00618            
1 69294U 26118AD  26157.25002315  .00070503  00000+0  18246-2 0  9994
2 69294  51.8715 106.0864 0002358  60.8242 199.7038 15.38422051  1306
KUIPER-00620            
1 69295U 26118AE  26157.25002315  .00073687  00000+0  19244-2 0  9990
2 69295  51.8710 106.1055 0003175  84.6689 167.7908 15.38120491  2240
STARLINK-37501          
1 69296U 26119A   26157.25002315 -.00687311  00000+0 -31536-2 0  9997
2 69296  97.2831 182.4556 0000953  84.0064 226.2140 15.85215358  2130
STARLINK-37496          
1 69297U 26119B   26157.25002315 -.01542395  00000+0 -75950-2 0  9999
2 69297  97.2829 182.4569 0001050  72.8644 240.4836 15.84772968  2134
STARLINK-37519          
1 69298U 26119C   26157.25002315 -.01044180  00000+0 -47899-2 0  9990
2 69298  97.2832 182.4601 0000802  77.1787 243.4056 15.86064810  2135
STARLINK-37455          
1 69299U 26119D   26157.25002315 -.01184046  00000+0 -57208-2 0  9992
2 69299  97.2829 182.4581 0001203  89.8363 226.9005 15.84897794  2138
STARLINK-37456          
1 69300U 26119E   26157.25002315 -.01177316  00000+0 -55635-2 0  9999
2 69300  97.2830 182.4611 0001014  85.4670 238.1254 15.85345293  2134
STARLINK-37630          
1 69301U 26119F   26157.25002315 -.00754184  00000+0 -33780-2 0  9990
2 69301  97.2833 182.4627 0000756  99.1775 227.6119 15.85871073  2295
STARLINK-37804          
1 69302U 26119G   26157.25002315 -.01244165  00000+0 -57731-2 0  9997
2 69302  97.2833 182.4639 0000994  83.8773 246.2060 15.85860082  2291
STARLINK-37730          
1 69303U 26119H   26157.25002315 -.00698575  00000+0 -30425-2 0  9996
2 69303  97.2833 182.4652 0000755  94.4611 238.7878 15.86319633  2296
STARLINK-37731          
1 69304U 26119J   26157.25002315 -.02309710  00000+0 -10350-1 0  9993
2 69304  97.2833 182.4663 0001210  59.6202 276.7139 15.87492814  2291
STARLINK-37734          
1 69305U 26119K   26157.25002315 -.01158460  00000+0 -52644-2 0  9990
2 69305  97.2835 182.4675 0001013 100.7661 238.7249 15.86535018  2298
STARLINK-37701          
1 69306U 26119L   26157.25002315 -.02407346  00000+0 -10755-1 0  9998
2 69306  97.2835 182.4687 0001083  46.8174 295.4877 15.87725313  2295
STARLINK-37732          
1 69307U 26119M   26157.25002315 -.02307092  00000+0 -10315-1 0  9998
2 69307  97.2835 182.4703 0000888  63.2254 281.9724 15.87540186  2293
STARLINK-37689          
1 69308U 26119N   26157.25002315 -.02506956  00000+0 -10981-1 0  9998
2 69308  97.2830 182.4709 0000655  40.3649 307.6374 15.87665541  2291
STARLINK-37619          
1 69309U 26119P   26157.25002315 -.02004260  00000+0 -85658-2 0  9994
2 69309  97.2835 182.4724 0000919  62.8797 287.9782 15.87956943  2292
STARLINK-37794          
1 69310U 26119Q   26157.25002315 -.00700570  00000+0 -27298-2 0  9997
2 69310  97.2835 182.4738 0000825  77.2309 276.4310 15.88581828  2291
STARLINK-37795          
1 69311U 26119R   26157.25002315 -.01346149  00000+0 -55655-2 0  9995
2 69311  97.2835 182.4743 0001173  53.5702 302.7776 15.88405704  2296
STARLINK-37790          
1 69312U 26119S   26157.25002315 -.00682502  00000+0 -26807-2 0  9998
2 69312  97.2832 182.4757 0000928  85.1353 273.9808 15.88380979  2290
STARLINK-37676          
1 69313U 26119T   26157.25002315 -.00655413  00000+0 -24642-2 0  9995
2 69313  97.2835 182.4771 0000787  77.8017 284.2218 15.89196475  2295
STARLINK-37617          
1 69314U 26119U   26157.25002315 -.00659015  00000+0 -24548-2 0  9993
2 69314  97.2834 182.4775 0000783  80.1874 284.7621 15.89389774  2292
STARLINK-37627          
1 69315U 26119V   26157.25002315 -.00706676  15368-3 -24271-2 0  9990
2 69315  97.2834 182.4790 0000786  77.5982 289.9531 15.89594782  2297
